NORAD_CAT_ID,OBJECT_NAME,OBJECT_TYPE,EPOCH,MEAN_MOTION,ECCENTRICITY,INCLINATION,RA_OF_ASC_NODE,ARG_OF_PERICENTER,MEAN_ANOMALY,BSTAR,MEAN_MOTION_DOT,MEAN_MOTION_DDOT,TLE_LINE0,TLE_LINE1,TLE_LINE2,SEMIMAJOR_AXIS,PERIOD,APOGEE,PERIGEE,DECAYED
49149.0,STARLINK-3053,PAYLOAD,2023-12-09 03:34:40,14.98333101,0.0002993,69.9981,205.8424,270.4121,89.6695,6.5288e-05,6.86e-06,0.0,0 STARLINK-3053,1 49149U 21082V   23343.14907584  .00000686  00000-0  65288-4 0  9996,2 49149  69.9981 205.8424 0002993 270.4121  89.6695 14.98333101124122,6950.183,96.107,574.128,569.968,0.0
49149.0,STARLINK-3053,PAYLOAD,2023-12-09 14:47:36,14.98330273,0.0002986,69.998,204.6642,270.3385,89.7432,3.1311e-05,2.81e-06,0.0,0 STARLINK-3053,1 49149U 21082V   23343.61639803  .00000281  00000-0  31311-4 0  9995,2 49149  69.9980 204.6642 0002986 270.3385  89.7432 14.98330273124186,6950.192,96.107,574.132,569.982,0.0
49149.0,STARLINK-3053,PAYLOAD,2023-12-09 21:12:08,14.98332048,0.0002981,69.9981,203.9909,270.1023,89.9795,4.2257e-05,4.11e-06,0.0,0 STARLINK-3053,1 49149U 21082V   23343.88343621  .00000411  00000-0  42257-4 0  9990,2 49149  69.9981 203.9909 0002981 270.1023  89.9795 14.98332048124228,6950.187,96.107,574.123,569.98,0.0
49149.0,STARLINK-3053,PAYLOAD,2023-12-10 03:36:40,14.9833465,0.0002976,69.998,203.3175,270.2544,89.8273,3.925e-05,3.75e-06,0.0,0 STARLINK-3053,1 49149U 21082V   23344.15047400  .00000375  00000-0  39250-4 0  9995,2 49149  69.9980 203.3175 0002976 270.2544  89.8273 14.98334650124275,6950.179,96.107,574.112,569.975,0.0
49149.0,STARLINK-3053,PAYLOAD,2023-12-10 14:49:37,14.98330212,0.0002961,69.998,202.1392,270.6232,89.4588,2.924e-05,2.56e-06,0.0,0 STARLINK-3053,1 49149U 21082V   23344.61779667  .00000256  00000-0  29240-4 0  9999,2 49149  69.9980 202.1392 0002961 270.6232  89.4588 14.98330212124337,6950.192,96.107,574.115,569.999,0.0
49149.0,STARLINK-3053,PAYLOAD,2023-12-10 21:14:09,14.98331697,0.0002968,69.998,201.4659,270.5581,89.5238,4.9845e-05,5.02e-06,0.0,0 STARLINK-3053,1 49149U 21082V   23344.88483479  .00000502  00000-0  49845-4 0  9998,2 49149  69.9980 201.4659 0002968 270.5581  89.5238 14.98331697124373,6950.188,96.107,574.115,569.99,0.0
49149.0,STARLINK-3053,PAYLOAD,2023-12-11 03:38:41,14.98333658,0.0002963,69.998,200.7926,270.311,89.771,4.6061e-05,4.57e-06,0.0,0 STARLINK-3053,1 49149U 21082V   23345.15187310  .00000457  00000-0  46061-4 0  9990,2 49149  69.9980 200.7926 0002963 270.3110  89.7710 14.98333658124425,6950.182,96.107,574.106,569.987,0.0
49149.0,STARLINK-3053,PAYLOAD,2023-12-11 14:51:38,14.98330578,0.0002951,69.9981,199.6141,269.5885,90.4936,2.4428e-05,1.98e-06,0.0,0 STARLINK-3053,1 49149U 21082V   23345.61919529  .00000198  00000-0  24428-4 0  9991,2 49149  69.9981 199.6141 0002951 269.5885  90.4936 14.98330578124480,6950.191,96.107,574.107,570.005,0.0
49149.0,STARLINK-3053,PAYLOAD,2023-12-11 22:52:18,14.98332703,0.0002952,69.9981,198.7726,269.5998,90.4823,4.5367e-05,4.48e-06,0.0,0 STARLINK-3053,1 49149U 21082V   23345.95299284  .00000448  00000-0  45367-4 0  9990,2 49149  69.9981 198.7726 0002952 269.5998  90.4823 14.98332703124538,6950.185,96.107,574.101,569.998,0.0
49149.0,STARLINK-3053,PAYLOAD,2023-12-12 00:28:26,14.98333366,0.0002951,69.9981,198.6042,269.5821,90.4999,4.6955e-05,4.67e-06,0.0,0 STARLINK-3053,1 49149U 21082V   23346.01975226  .00000467  00000-0  46955-4 0  9990,2 49149  69.9981 198.6042 0002951 269.5821  90.4999 14.98333366124543,6950.182,96.107,574.098,569.996,0.0
49149.0,STARLINK-3053,PAYLOAD,2023-12-12 19:42:03,14.98329751,0.0002943,69.9981,196.5843,269.0555,91.0267,2.0191e-05,1.48e-06,0.0,0 STARLINK-3053,1 49149U 21082V   23346.82087495  .00000148  00000-0  20191-4 0  9991,2 49149  69.9981 196.5843 0002943 269.0555  91.0267 14.98329751124671,6950.194,96.107,574.104,570.013,0.0
49149.0,STARLINK-3053,PAYLOAD,2023-12-12 21:18:11,14.98331196,0.0002939,69.9982,196.416,269.0478,91.0344,3.6426e-05,3.42e-06,0.0,0 STARLINK-3053,1 49149U 21082V   23346.88763372  .00000342  00000-0  36426-4 0  9996,2 49149  69.9982 196.4160 0002939 269.0478  91.0344 14.98331196124674,6950.189,96.107,574.097,570.012,0.0
49149.0,STARLINK-3053,PAYLOAD,2023-12-13 14:55:40,14.98329382,0.0002909,69.9983,194.5644,269.2479,90.8347,3.5068e-05,3.25e-06,0.0,0 STARLINK-3053,1 49149U 21082V   23347.62199419  .00000325  00000-0  35068-4 0  9996,2 49149  69.9983 194.5644 0002909 269.2479  90.8347 14.98329382124787,6950.195,96.107,574.082,570.038,0.0
49149.0,STARLINK-3053,PAYLOAD,2023-12-13 19:44:04,14.98331544,0.0002902,69.9983,194.0594,268.9252,91.1575,3.693e-05,3.48e-06,0.0,0 STARLINK-3053,1 49149U 21082V   23347.82227262  .00000348  00000-0  36930-4 0  9990,2 49149  69.9983 194.0594 0002902 268.9252  91.1575 14.98331544124829,6950.188,96.107,574.07,570.036,0.0
49149.0,STARLINK-3053,PAYLOAD,2023-12-13 21:20:12,14.98332434,0.0002902,69.9983,193.8911,268.9991,91.0835,4.7839e-05,4.78e-06,0.0,0 STARLINK-3053,1 49149U 21082V   23347.88903166  .00000478  00000-0  47839-4 0  9994,2 49149  69.9983 193.8911 0002902 268.9991  91.0835 14.98332434124826,6950.185,96.107,574.067,570.033,0.0
49149.0,STARLINK-3053,PAYLOAD,2023-12-13 22:56:20,14.9833271,0.0002901,69.9983,193.7227,268.9768,91.1058,4.6777e-05,4.65e-06,0.0,0 STARLINK-3053,1 49149U 21082V   23347.95579140  .00000465  00000-0  46777-4 0  9999,2 49149  69.9983 193.7227 0002901 268.9768  91.1058 14.98332710124832,6950.185,96.107,574.066,570.033,0.0
49149.0,STARLINK-3053,PAYLOAD,2023-12-14 19:46:05,14.98330833,0.0002722,69.9984,191.5338,265.0725,95.0124,5.7731e-05,5.96e-06,0.0,0 STARLINK-3053,1 49149U 21082V   23348.82367170  .00000596  00000-0  57731-4 0  9991,2 49149  69.9984 191.5338 0002722 265.0725  95.0124 14.98330833124970,6950.19,96.107,573.947,570.163,0.0
49149.0,STARLINK-3053,PAYLOAD,2023-12-14 21:22:13,14.98330855,0.0002747,69.9982,191.3654,265.4361,94.6484,5.1439e-05,5.21e-06,0.0,0 STARLINK-3053,1 49149U 21082V   23348.89043162  .00000521  00000-0  51439-4 0  9997,2 49149  69.9982 191.3654 0002747 265.4361  94.6484 14.98330855124972,6950.19,96.107,573.964,570.146,0.0
49149.0,STARLINK-3053,PAYLOAD,2023-12-15 14:59:42,14.9832924,0.0002647,69.9987,189.5144,264.887,95.1987,9.8914e-06,2.5e-07,0.0,0 STARLINK-3053,1 49149U 21082V   23349.62479357  .00000025  00000-0  98914-5 0  9997,2 49149  69.9987 189.5144 0002647 264.8870  95.1987 14.98329240125080,6950.195,96.107,573.9,570.221,0.0
49149.0,STARLINK-3053,PAYLOAD,2023-12-15 19:48:06,14.98327963,0.0002639,69.999,189.0095,264.052,96.0338,2.5045e-06,-6.3e-07,0.0,0 STARLINK-3053,1 49149U 21082V   23349.82507446 -.00000063  00000-0  25045-5 0  9998,2 49149  69.9990 189.0095 0002639 264.0520  96.0338 14.98327963125124,6950.199,96.107,573.898,570.23,0.0
49149.0,STARLINK-3053,PAYLOAD,2023-12-15 21:24:14,14.983258,0.0002704,69.9986,188.8404,265.9719,94.1131,-3.1861e-05,-4.73e-06,0.0,0 STARLINK-3053,1 49149U 21082V   23349.89183703 -.00000473  00000-0 -31861-4 0  9999,2 49149  69.9986 188.8404 0002704 265.9719  94.1131 14.98325800125121,6950.206,96.107,573.95,570.192,0.0
49149.0,STARLINK-3053,PAYLOAD,2023-12-15 23:00:22,14.98324647,0.0002719,69.9986,188.6721,266.7289,93.3559,-4.1475e-06,-1.42e-06,0.0,0 STARLINK-3053,1 49149U 21082V   23349.95859729 -.00000142  00000-0 -41475-5 0  9990,2 49149  69.9986 188.6721 0002719 266.7289  93.3559 14.98324647125132,6950.209,96.107,573.964,570.185,0.0
49149.0,STARLINK-3053,PAYLOAD,2023-12-16 19:50:07,14.98325705,0.0002581,69.9983,186.4832,261.4884,98.5982,9.4667e-05,1.037e-05,0.0,0 STARLINK-3053,1 49149U 21082V   23350.82647489  .00001037  00000-0  94667-4 0  9998,2 49149  69.9983 186.4832 0002581 261.4884  98.5982 14.98325705125276,6950.206,96.107,573.865,570.277,0.0
49149.0,STARLINK-3053,PAYLOAD,2023-12-16 21:26:15,14.98316145,0.0002626,69.9983,186.3148,265.4675,94.6185,0.00026326,3.048e-05,0.0,0 STARLINK-3053,1 49149U 21082V   23350.89323676  .00003048  00000-0  26326-3 0  9994,2 49149  69.9983 186.3148 0002626 265.4675  94.6185 14.98316145125277,6950.236,96.108,573.926,570.276,0.0
49149.0,STARLINK-3053,PAYLOAD,2023-12-16 23:02:24,14.98302355,0.0002459,69.9984,186.1468,263.1186,96.9693,0.00052522,6.175e-05,0.0,0 STARLINK-3053,1 49149U 21082V   23350.96000019  .00006175  00000-0  52522-3 0  9996,2 49149  69.9984 186.1468 0002459 263.1186  96.9693 14.98302355125296,6950.278,96.109,573.852,570.434,0.0
49149.0,STARLINK-3053,PAYLOAD,2023-12-17 15:03:43,14.98330835,0.0002839,69.9982,184.4635,268.8665,91.2169,0.00010123,1.115e-05,0.0,0 STARLINK-3053,1 49149U 21082V   23351.62759131  .00001115  00000-0  10123-3 0  9996,2 49149  69.9982 184.4635 0002839 268.8665  91.2169 14.98330835125387,6950.19,96.107,574.028,570.082,0.0
49149.0,STARLINK-3053,PAYLOAD,2023-12-17 19:52:07,14.98332432,0.0002783,69.9982,183.9587,266.8047,93.2794,0.00011925,1.33e-05,0.0,0 STARLINK-3053,1 49149U 21082V   23351.82786980  .00001330  00000-0  11925-3 0  9990,2 49149  69.9982 183.9587 0002783 266.8047  93.2794 14.98332432125423,6950.185,96.107,573.985,570.116,0.0
49149.0,STARLINK-3053,PAYLOAD,2023-12-17 21:28:15,14.98334106,0.0002753,69.9983,183.7906,265.6503,94.4342,0.00014,1.578e-05,0.0,0 STARLINK-3053,1 49149U 21082V   23351.89462860  .00001578  00000-0  14000-3 0  9996,2 49149  69.9983 183.7906 0002753 265.6503  94.4342 14.98334106125420,6950.18,96.107,573.959,570.132,0.0
49149.0,STARLINK-3053,PAYLOAD,2023-12-18 13:29:36,14.98332549,0.0002605,69.9987,182.1086,260.2978,99.7887,6.9594e-05,7.38e-06,0.0,0 STARLINK-3053,1 49149U 21082V   23352.56223003  .00000738  00000-0  69594-4 0  9991,2 49149  69.9987 182.1086 0002605 260.2978  99.7887 14.98332549125521,6950.185,96.107,573.861,570.239,0.0
49149.0,STARLINK-3053,PAYLOAD,2023-12-18 19:54:08,14.98335732,0.0002571,69.9989,181.4354,261.2379,98.8489,1.0302e-05,3e-07,0.0,0 STARLINK-3053,1 49149U 21082V   23352.82926914  .00000030  00000-0  10302-4 0  9999,2 49149  69.9989 181.4354 0002571 261.2379  98.8489 14.98335732125571,6950.175,96.107,573.827,570.253,0.0
